STARLINK-30260          
1 57524U 23115D   26029.87488039  .00001349  00000+0  11496-3 0  9991
2 57524  43.0023 215.8270 0001245 265.1020  94.9680 15.02525688136479
STARLINK-30253          
1 57525U 23115E   26029.93136434  .00001048  00000+0  92599-4 0  9998
2 57525  43.0026 215.3781 0000908 271.3009  88.7729 15.02545835136488
STARLINK-30257          
1 57526U 23115F   26030.20061156  .00000347  00000+0  40734-4 0  9994
2 57526  43.0007 213.9811 0001257 270.7840  89.2858 15.02532820136524
STARLINK-30250          
1 57527U 23115G   26030.19396072  .00005025  00000+0  38671-3 0  9995
2 57527  43.0016 213.9036 0001087 266.6882  93.3836 15.02539916137420
STARLINK-30269          
1 57528U 23115H   26029.78176998  .00002951  00000+0  23344-3 0  9998
2 57528  43.0042 215.9972 0000844 259.2896 100.7851 15.02529295136466
STARLINK-30266          
1 57529U 23115J   26030.23711812  .00000688  00000+0  65975-4 0  9993
2 57529  43.0027 213.3769 0001332 268.4638  91.6051 15.02533885136533
STARLINK-30270          
1 57530U 23115K   26029.84490789  .00000814  00000+0  75279-4 0  9996
2 57530  43.0015 215.6056 0001029 274.3579  85.7146 15.02541502136476
STARLINK-30268          
1 57531U 23115L   26029.85824151  .00001686  00000+0  13990-3 0  9991
2 57531  43.0018 215.7041 0001323 264.1128  95.9563 15.02525517136473
STARLINK-30251          
1 57532U 23115M   26029.85268100  .00000282  00000+0  35947-4 0  9996
2 57532  43.0026 215.6535 0001076 265.0673  95.0047 15.02537179136475
STARLINK-30254          
1 57533U 23115N   26030.20070015  .00004195  00000+0  16191-3 0  9990
2 57533  43.0057 320.5288 0002688 288.3179  71.7380 15.27572768139474
STARLINK-30264          
1 57534U 23115P   26030.09145885 -.00004017  00000+0 -13661-3 0  9990
2 57534  43.0031  66.8761 0001181 235.1008 124.9732 15.27559350139453
STARLINK-30166          
1 57602U 23119A   26030.14577138  .00000464  00000+0  49433-4 0  9993
2 57602  43.0045 291.4168 0001361 275.3379  84.7308 15.02530788137220
STARLINK-30223          
1 57603U 23119B   26030.12578618 -.00000588  00000+0 -28442-4 0  9992
2 57603  43.0024 291.2575 0001303 297.4400  62.6310 15.02539787137275
STARLINK-30218          
1 57604U 23119C   26029.73357975  .00001164  00000+0  10124-3 0  9995
2 57604  43.0023 293.4788 0001339 265.3188  94.7501 15.02534732137229
STARLINK-30138          
1 57605U 23119D   26030.19559810 -.00000605  00000+0 -29726-4 0  9990
2 57605  43.0060 290.9286 0001841 262.5724  97.4909 15.02531683137290
STARLINK-30255          
1 57606U 23119E   26030.10358385  .00000079  00000+0  20923-4 0  9999
2 57606  43.0058 291.1016 0001735 273.3118  86.7526 15.02538596137286
