[{"OBJECT_NAME":"STARLINK-30260","OBJECT_ID":"2023-115D","EPOCH":"2026-01-29T20:59:49.665696","MEAN_MOTION":15.02525688,"ECCENTRICITY":0.00012457,"INCLINATION":43.0023,"RA_OF_ASC_NODE":215.827,"ARG_OF_PERICENTER":265.102,"MEAN_ANOMALY":94.968,"EPHEMERIS_TYPE":0,"CLASSIFICATION_TYPE":"U","NORAD_CAT_ID":57524,"ELEMENT_SET_NO":999,"REV_AT_EPOCH":13647,"BSTAR":0.00011496075,"MEAN_MOTION_DOT":1.349e-5,"MEAN_MOTION_DDOT":0},{"OBJECT_NAME":"STARLINK-30253","OBJECT_ID":"2023-115E","EPOCH":"2026-01-29T22:21:09.878976","MEAN_MOTION":15.02545835,"ECCENTRICITY":9.083e-5,"INCLINATION":43.0026,"RA_OF_ASC_NODE":215.3781,"ARG_OF_PERICENTER":271.3009,"MEAN_ANOMALY":88.7729,"EPHEMERIS_TYPE":0,"CLASSIFICATION_TYPE":"U","NORAD_CAT_ID":57525,"ELEMENT_SET_NO":999,"REV_AT_EPOCH":13648,"BSTAR":9.2598913e-5,"MEAN_MOTION_DOT":1.048e-5,"MEAN_MOTION_DDOT":0},{"OBJECT_NAME":"STARLINK-30257","OBJECT_ID":"2023-115F","EPOCH":"2026-01-30T04:48:52.838784","MEAN_MOTION":15.0253282,"ECCENTRICITY":0.00012576,"INCLINATION":43.0007,"RA_OF_ASC_NODE":213.9811,"ARG_OF_PERICENTER":270.784,"MEAN_ANOMALY":89.2858,"EPHEMERIS_TYPE":0,"CLASSIFICATION_TYPE":"U","NORAD_CAT_ID":57526,"ELEMENT_SET_NO":999,"REV_AT_EPOCH":13652,"BSTAR":4.0734097e-5,"MEAN_MOTION_DOT":3.47e-6,"MEAN_MOTION_DDOT":0},{"OBJECT_NAME":"STARLINK-30250","OBJECT_ID":"2023-115G","EPOCH":"2026-01-30T04:39:18.206208","MEAN_MOTION":15.02539916,"ECCENTRICITY":0.0001087,"INCLINATION":43.0016,"RA_OF_ASC_NODE":213.9036,"ARG_OF_PERICENTER":266.6882,"MEAN_ANOMALY":93.3836,"EPHEMERIS_TYPE":0,"CLASSIFICATION_TYPE":"U","NORAD_CAT_ID":57527,"ELEMENT_SET_NO":999,"REV_AT_EPOCH":13742,"BSTAR":0.00038670951,"MEAN_MOTION_DOT":5.025e-5,"MEAN_MOTION_DDOT":0},{"OBJECT_NAME":"STARLINK-30269","OBJECT_ID":"2023-115H","EPOCH":"2026-01-29T18:45:44.926272","MEAN_MOTION":15.02529295,"ECCENTRICITY":8.441e-5,"INCLINATION":43.0042,"RA_OF_ASC_NODE":215.9972,"ARG_OF_PERICENTER":259.2896,"MEAN_ANOMALY":100.7851,"EPHEMERIS_TYPE":0,"CLASSIFICATION_TYPE":"U","NORAD_CAT_ID":57528,"ELEMENT_SET_NO":999,"REV_AT_EPOCH":13646,"BSTAR":0.00023344395,"MEAN_MOTION_DOT":2.951e-5,"MEAN_MOTION_DDOT":0},{"OBJECT_NAME":"STARLINK-30266","OBJECT_ID":"2023-115J","EPOCH":"2026-01-30T05:41:27.005568","MEAN_MOTION":15.02533885,"ECCENTRICITY":0.00013324,"INCLINATION":43.0027,"RA_OF_ASC_NODE":213.3769,"ARG_OF_PERICENTER":268.4638,"MEAN_ANOMALY":91.6051,"EPHEMERIS_TYPE":0,"CLASSIFICATION_TYPE":"U","NORAD_CAT_ID":57529,"ELEMENT_SET_NO":999,"REV_AT_EPOCH":13653,"BSTAR":6.5975247e-5,"MEAN_MOTION_DOT":6.88e-6,"MEAN_MOTION_DDOT":0},{"OBJECT_NAME":"STARLINK-30270","OBJECT_ID":"2023-115K","EPOCH":"2026-01-29T20:16:40.041696","MEAN_MOTION":15.02541502,"ECCENTRICITY":0.00010292,"INCLINATION":43.0015,"RA_OF_ASC_NODE":215.6056,"ARG_OF_PERICENTER":274.3579,"MEAN_ANOMALY":85.7146,"EPHEMERIS_TYPE":0,"CLASSIFICATION_TYPE":"U","NORAD_CAT_ID":57530,"ELEMENT_SET_NO":999,"REV_AT_EPOCH":13647,"BSTAR":7.5278674e-5,"MEAN_MOTION_DOT":8.14e-6,"MEAN_MOTION_DDOT":0},{"OBJECT_NAME":"STARLINK-30268","OBJECT_ID":"2023-115L","EPOCH":"2026-01-29T20:35:52.066464","MEAN_MOTION":15.02525517,"ECCENTRICITY":0.00013236,"INCLINATION":43.0018,"RA_OF_ASC_NODE":215.7041,"ARG_OF_PERICENTER":264.1128,"MEAN_ANOMALY":95.9563,"EPHEMERIS_TYPE":0,"CLASSIFICATION_TYPE":"U","NORAD_CAT_ID":57531,"ELEMENT_SET_NO":999,"REV_AT_EPOCH":13647,"BSTAR":0.00013989737,"MEAN_MOTION_DOT":1.686e-5,"MEAN_MOTION_DDOT":0},{"OBJECT_NAME":"STARLINK-30251","OBJECT_ID":"2023-115M","EPOCH":"2026-01-29T20:27:51.638400","MEAN_MOTION":15.02537179,"ECCENTRICITY":0.0001076,"INCLINATION":43.0026,"RA_OF_ASC_NODE":215.6535,"ARG_OF_PERICENTER":265.0673,"MEAN_ANOMALY":95.0047,"EPHEMERIS_TYPE":0,"CLASSIFICATION_TYPE":"U","NORAD_CAT_ID":57532,"ELEMENT_SET_NO":999,"REV_AT_EPOCH":13647,"BSTAR":3.5946608e-5,"MEAN_MOTION_DOT":2.82e-6,"MEAN_MOTION_DDOT":0},{"OBJECT_NAME":"STARLINK-30254","OBJECT_ID":"2023-115N","EPOCH":"2026-01-30T04:49:00.492960","MEAN_MOTION":15.27572768,"ECCENTRICITY":0.00026882,"INCLINATION":43.0057,"RA_OF_ASC_NODE":320.5288,"ARG_OF_PERICENTER":288.3179,"MEAN_ANOMALY":71.738,"EPHEMERIS_TYPE":0,"CLASSIFICATION_TYPE":"U","NORAD_CAT_ID":57533,"ELEMENT_SET_NO":999,"REV_AT_EPOCH":13947,"BSTAR":0.00016191324,"MEAN_MOTION_DOT":4.195e-5,"MEAN_MOTION_DDOT":0},{"OBJECT_NAME":"STARLINK-30264","OBJECT_ID":"2023-115P","EPOCH":"2026-01-30T02:11:42.044640","MEAN_MOTION":15.2755935,"ECCENTRICITY":0.00011818,"INCLINATION":43.0031,"RA_OF_ASC_NODE":66.8761,"ARG_OF_PERICENTER":235.1008,"MEAN_ANOMALY":124.9732,"EPHEMERIS_TYPE":0,"CLASSIFICATION_TYPE":"U","NORAD_CAT_ID":57534,"ELEMENT_SET_NO":999,"REV_AT_EPOCH":13945,"BSTAR":-0.00013660676,"MEAN_MOTION_DOT":-4.017e-5,"MEAN_MOTION_DDOT":0},{"OBJECT_NAME":"STARLINK-30166","OBJECT_ID":"2023-119A","EPOCH":"2026-01-30T03:29:54.647232","MEAN_MOTION":15.02530788,"ECCENTRICITY":0.00013611,"INCLINATION":43.0045,"RA_OF_ASC_NODE":291.4168,"ARG_OF_PERICENTER":275.3379,"MEAN_ANOMALY":84.7308,"EPHEMERIS_TYPE":0,"CLASSIFICATION_TYPE":"U","NORAD_CAT_ID":57602,"ELEMENT_SET_NO":999,"REV_AT_EPOCH":13722,"BSTAR":4.9432971e-5,"MEAN_MOTION_DOT":4.64e-6,"MEAN_MOTION_DDOT":0},{"OBJECT_NAME":"STARLINK-30223","OBJECT_ID":"2023-119B","EPOCH":"2026-01-30T03:01:07.925952","MEAN_MOTION":15.02539787,"ECCENTRICITY":0.00013035,"INCLINATION":43.0024,"RA_OF_ASC_NODE":291.2575,"ARG_OF_PERICENTER":297.44,"MEAN_ANOMALY":62.631,"EPHEMERIS_TYPE":0,"CLASSIFICATION_TYPE":"U","NORAD_CAT_ID":57603,"ELEMENT_SET_NO":999,"REV_AT_EPOCH":13727,"BSTAR":-2.8441745e-5,"MEAN_MOTION_DOT":-5.88e-6,"MEAN_MOTION_DDOT":0},{"OBJECT_NAME":"STARLINK-30218","OBJECT_ID":"2023-119C","EPOCH":"2026-01-29T17:36:21.290400","MEAN_MOTION":15.02534732,"ECCENTRICITY":0.00013392,"INCLINATION":43.0023,"RA_OF_ASC_NODE":293.4788,"ARG_OF_PERICENTER":265.3188,"MEAN_ANOMALY":94.7501,"EPHEMERIS_TYPE":0,"CLASSIFICATION_TYPE":"U","NORAD_CAT_ID":57604,"ELEMENT_SET_NO":999,"REV_AT_EPOCH":13722,"BSTAR":0.00010124212,"MEAN_MOTION_DOT":1.164e-5,"MEAN_MOTION_DDOT":0},{"OBJECT_NAME":"STARLINK-30138","OBJECT_ID":"2023-119D","EPOCH":"2026-01-30T04:41:39.675840","MEAN_MOTION":15.02531683,"ECCENTRICITY":0.00018417,"INCLINATION":43.006,"RA_OF_ASC_NODE":290.9286,"ARG_OF_PERICENTER":262.5724,"MEAN_ANOMALY":97.4909,"EPHEMERIS_TYPE":0,"CLASSIFICATION_TYPE":"U","NORAD_CAT_ID":57605,"ELEMENT_SET_NO":999,"REV_AT_EPOCH":13729,"BSTAR":-2.9725748e-5,"MEAN_MOTION_DOT":-6.05e-6,"MEAN_MOTION_DDOT":0},{"OBJECT_NAME":"STARLINK-30255","OBJECT_ID":"2023-119E","EPOCH":"2026-01-30T02:29:09.644640","MEAN_MOTION":15.02538596,"ECCENTRICITY":0.00017356,"INCLINATION":43.0058,"RA_OF_ASC_NODE":291.1016,"ARG_OF_PERICENTER":273.3118,"MEAN_ANOMALY":86.7526,"EPHEMERIS_TYPE":0,"CLASSIFICATION_TYPE":"U","NORAD_CAT_ID":57606,"ELEMENT_SET_NO":999,"REV_AT_EPOCH":13728,"BSTAR":2.092322e-5,"MEAN_MOTION_DOT":7.9e-7,"MEAN_MOTION_DDOT":0}]
